CTC1_L_00425001-01
1 10000U 23117WH  26075.70034722  .00000000  00000+0  00000-0 0  9999
2 10000  95.0000   0.0000 0000000   0.0000   0.0000 12.65579349    19
CTC1_L_00425001-02
1 10001U 25624B   26075.70034722  .00000000  00000+0  00000-0 0  9995
2 10001  95.0000   0.0000 0000000   0.0000  90.0000 12.65579349    19
CTC1_L_00425001-03
1 10002U 22983ZA  26075.70034722  .00000000  00000+0  00000-0 0  9991
2 10002  95.0000   0.0000 0000000   0.0000 180.0000 12.65579349    10
CTC1_L_00425001-04
1 10003U 23144GJ  26075.70034722  .00000000  00000+0  00000-0 0  9992
2 10003  95.0000   0.0000 0000000   0.0000 270.0000 12.65579349    11
CTC1_L_00425002-01
1 10004U 24273HL  26075.70034722  .00000000  00000+0  00000-0 0  9997
2 10004  95.0000  12.0000 0000000   0.0000  12.0000 12.65579349    19
CTC1_L_00425002-02
1 10005U 24571YN  26075.70034722  .00000000  00000+0  00000-0 0  9999
2 10005  95.0000  12.0000 0000000   0.0000 102.0000 12.65579349    10
CTC1_L_00425002-03
1 10006U 23019HP  26075.70034722  .00000000  00000+0  00000-0 0  9996
2 10006  95.0000  12.0000 0000000   0.0000 192.0000 12.65579349    10
CTC1_L_00425002-04
1 10007U 22078KE  26075.70034722  .00000000  00000+0  00000-0 0  9991
2 10007  95.0000  12.0000 0000000   0.0000 282.0000 12.65579349    11
CTC1_L_00425003-01
1 10008U 23723UF  26075.70034722  .00000000  00000+0  00000-0 0  9990
2 10008  95.0000  24.0000 0000000   0.0000  24.0000 12.65579349    19
CTC1_L_00425003-02
1 10009U 26760RH  26075.70034722  .00000000  00000+0  00000-0 0  9995
2 10009  95.0000  24.0000 0000000   0.0000 114.0000 12.65579349    10
CTC1_L_00425003-03
1 10010U 26654UN  26075.70034722  .00000000  00000+0  00000-0 0  9999
2 10010  95.0000  24.0000 0000000   0.0000 204.0000 12.65579349    12
CTC1_L_00425003-04
1 10011U 23013RG  26075.70034722  .00000000  00000+0  00000-0 0  9996
2 10011  95.0000  24.0000 0000000   0.0000 294.0000 12.65579349    12
CTC1_L_00425004-01
1 10012U 26592YF  26075.70034722  .00000000  00000+0  00000-0 0  9992
2 10012  95.0000  36.0000 0000000   0.0000  36.0000 12.65579349    10
CTC1_L_00425004-02
1 10013U 24946VO  26075.70034722  .00000000  00000+0  00000-0 0  9994
2 10013  95.0000  36.0000 0000000   0.0000 126.0000 12.65579349    11
CTC1_L_00425004-03
1 10014U 26491MQ  26075.70034722  .00000000  00000+0  00000-0 0  9992
2 10014  95.0000  36.0000 0000000   0.0000 216.0000 12.65579349    12
CTC1_L_00425004-04
1 10015U 26697IV  26075.70034722  .00000000  00000+0  00000-0 0  9991
2 10015  95.0000  36.0000 0000000   0.0000 306.0000 12.65579349    13
CTC1_L_00425005-01
1 10016U 22016EI  26075.70034722  .00000000  00000+0  00000-0 0  9993
2 10016  95.0000  48.0000 0000000   0.0000  48.0000 12.65579349    10
CTC1_L_00425005-02
1 10017U 22047ML  26075.70034722  .00000000  00000+0  00000-0 0  9998
2 10017  95.0000  48.0000 0000000   0.0000 138.0000 12.65579349    11
CTC1_L_00425005-03
1 10018U 26576AP  26075.70034722  .00000000  00000+0  00000-0 0  9990
2 10018  95.0000  48.0000 0000000   0.0000 228.0000 12.65579349    12
CTC1_L_00425005-04
1 10019U 24840FA  26075.70034722  .00000000  00000+0  00000-0 0  9993
2 10019  95.0000  48.0000 0000000   0.0000 318.0000 12.65579349    13
CTC1_L_00425006-01
1 10020U 26281ZU  26075.70034722  .00000000  00000+0  00000-0 0  9996
2 10020  95.0000  60.0000 0000000   0.0000  60.0000 12.65579349    13
CTC1_L_00425006-02
1 10021U 23496AL  26075.70034722  .00000000  00000+0  00000-0 0  9992
2 10021  95.0000  60.0000 0000000   0.0000 150.0000 12.65579349    14
CTC1_L_00425006-03
1 10022U 26172W   26075.70034722  .00000000  00000+0  00000-0 0  9997
2 10022  95.0000  60.0000 0000000   0.0000 240.0000 12.65579349    15
CTC1_L_00425006-04
1 10023U 23802HW  26075.70034722  .00000000  00000+0  00000-0 0  9995
2 10023  95.0000  60.0000 0000000   0.0000 330.0000 12.65579349    16
CTC1_L_00425007-01
1 10024U 25690GD  26075.70034722  .00000000  00000+0  00000-0 0  9993
2 10024  95.0000  72.0000 0000000   0.0000  72.0000 12.65579349    13
CTC1_L_00425007-02
1 10025U 26912BT  26075.70034722  .00000000  00000+0  00000-0 0  9992
2 10025  95.0000  72.0000 0000000   0.0000 162.0000 12.65579349    14
CTC1_L_00425007-03
1 10026U 22084VW  26075.70034722  .00000000  00000+0  00000-0 0  9999
2 10026  95.0000  72.0000 0000000   0.0000 252.0000 12.65579349    15
CTC1_L_00425007-04
1 10027U 24207BL  26075.70034722  .00000000  00000+0  00000-0 0  9999
2 10027  95.0000  72.0000 0000000   0.0000 342.0000 12.65579349    16
CTC1_L_00425008-01
1 10028U 26154LU  26075.70034722  .00000000  00000+0  00000-0 0  9993
2 10028  95.0000  84.0000 0000000   0.0000  84.0000 12.65579349    13
CTC1_L_00425008-02
1 10029U 26744ME  26075.70034722  .00000000  00000+0  00000-0 0  9999
2 10029  95.0000  84.0000 0000000   0.0000 174.0000 12.65579349    14
CTC1_L_00425008-03
1 10030U 25884TX  26075.70034722  .00000000  00000+0  00000-0 0  9995
2 10030  95.0000  84.0000 0000000   0.0000 264.0000 12.65579349    16
CTC1_L_00425008-04
1 10031U 22090KE  26075.70034722  .00000000  00000+0  00000-0 0  9992
2 10031  95.0000  84.0000 0000000   0.0000 354.0000 12.65579349    17
CTC1_L_00425009-01
1 10032U 22562NY  26075.70034722  .00000000  00000+0  00000-0 0  9997
2 10032  95.0000  96.0000 0000000   0.0000  96.0000 12.65579349    14
CTC1_L_00425009-02
1 10033U 23913VO  26075.70034722  .00000000  00000+0  00000-0 0  9999
2 10033  95.0000  96.0000 0000000   0.0000 186.0000 12.65579349    15
CTC1_L_00425009-03
1 10034U 25214CN  26075.70034722  .00000000  00000+0  00000-0 0  9996
2 10034  95.0000  96.0000 0000000   0.0000 276.0000 12.65579349    16
CTC1_L_00425009-04
1 10035U 23611RZ  26075.70034722  .00000000  00000+0  00000-0 0  9996
2 10035  95.0000  96.0000 0000000   0.0000   6.0000 12.65579349    18
CTC1_L_00425010-01
1 10036U 25574RZ  26075.70034722  .00000000  00000+0  00000-0 0  9997
2 10036  95.0000 108.0000 0000000   0.0000 108.0000 12.65579349    16
CTC1_L_00425010-02
1 10037U 26709HZ  26075.70034722  .00000000  00000+0  00000-0 0  9999
2 10037  95.0000 108.0000 0000000   0.0000 198.0000 12.65579349    16
CTC1_L_00425010-03
1 10038U 22728WH  26075.70034722  .00000000  00000+0  00000-0 0  9997
2 10038  95.0000 108.0000 0000000   0.0000 288.0000 12.65579349    17
CTC1_L_00425010-04
1 10039U 26928OZ  26075.70034722  .00000000  00000+0  00000-0 0  9994
2 10039  95.0000 108.0000 0000000   0.0000  18.0000 12.65579349    19
CTC1_L_00425011-01
1 10040U 26293JB  26075.70034722  .00000000  00000+0  00000-0 0  9991
2 10040  95.0000 120.0000 0000000   0.0000 120.0000 12.65579349    19
CTC1_L_00425011-02
1 10041U 24578MD  26075.70034722  .00000000  00000+0  00000-0 0  9996
2 10041  95.0000 120.0000 0000000   0.0000 210.0000 12.65579349    10
CTC1_L_00425011-03
1 10042U 22871QE  26075.70034722  .00000000  00000+0  00000-0 0  9991
2 10042  95.0000 120.0000 0000000   0.0000 300.0000 12.65579349    11
CTC1_L_00425011-04
1 10043U 22201ZX  26075.70034722  .00000000  00000+0  00000-0 0  9999
2 10043  95.0000 120.0000 0000000   0.0000  30.0000 12.65579349    12
CTC1_L_00425012-01
1 10044U 24561ZK  26075.70034722  .00000000  00000+0  00000-0 0  9991
2 10044  95.0000 132.0000 0000000   0.0000 132.0000 12.65579349    19
CTC1_L_00425012-02
1 10045U 25194F   26075.70034722  .00000000  00000+0  00000-0 0  9995
2 10045  95.0000 132.0000 0000000   0.0000 222.0000 12.65579349    10
CTC1_L_00425012-03
1 10046U 23760CH  26075.70034722  .00000000  00000+0  00000-0 0  9993
2 10046  95.0000 132.0000 0000000   0.0000 312.0000 12.65579349    11
CTC1_L_00425012-04
1 10047U 26261EO  26075.70034722  .00000000  00000+0  00000-0 0  9993
2 10047  95.0000 132.0000 0000000   0.0000  42.0000 12.65579349    12
CTC1_L_00425013-01
1 10048U 26948IU  26075.70034722  .00000000  00000+0  00000-0 0  9996
2 10048  95.0000 144.0000 0000000   0.0000 144.0000 12.65579349    19
CTC1_L_00425013-02
1 10049U 24769BX  26075.70034722  .00000000  00000+0  00000-0 0  9996
2 10049  95.0000 144.0000 0000000   0.0000 234.0000 12.65579349    10
CTC1_L_00425013-03
1 10050U 25701FO  26075.70034722  .00000000  00000+0  00000-0 0  9995
2 10050  95.0000 144.0000 0000000   0.0000 324.0000 12.65579349    12
CTC1_L_00425013-04
1 10051U 23179CP  26075.70034722  .00000000  00000+0  00000-0 0  9993
2 10051  95.0000 144.0000 0000000   0.0000  54.0000 12.65579349    13
CTC1_L_00425014-01
1 10052U 25540RS  26075.70034722  .00000000  00000+0  00000-0 0  9998
2 10052  95.0000 156.0000 0000000   0.0000 156.0000 12.65579349    10
CTC1_L_00425014-02
1 10053U 26468JF  26075.70034722  .00000000  00000+0  00000-0 0  9999
2 10053  95.0000 156.0000 0000000   0.0000 246.0000 12.65579349    11
CTC1_L_00425014-03
1 10054U 22769JY  26075.70034722  .00000000  00000+0  00000-0 0  9990
2 10054  95.0000 156.0000 0000000   0.0000 336.0000 12.65579349    12
CTC1_L_00425014-04
1 10055U 26642AY  26075.70034722  .00000000  00000+0  00000-0 0  9995
2 10055  95.0000 156.0000 0000000   0.0000  66.0000 12.65579349    13
CTC1_L_00425015-01
1 10056U 25839CW  26075.70034722  .00000000  00000+0  00000-0 0  9993
2 10056  95.0000 168.0000 0000000   0.0000 168.0000 12.65579349    10
CTC1_L_00425015-02
1 10057U 22369EZ  26075.70034722  .00000000  00000+0  00000-0 0  9999
2 10057  95.0000 168.0000 0000000   0.0000 258.0000 12.65579349    11
CTC1_L_00425015-03
1 10058U 22986NU  26075.70034722  .00000000  00000+0  00000-0 0  9995
2 10058  95.0000 168.0000 0000000   0.0000 348.0000 12.65579349    12
CTC1_L_00425015-04
1 10059U 26302KK  26075.70034722  .00000000  00000+0  00000-0 0  9992
2 10059  95.0000 168.0000 0000000   0.0000  78.0000 12.65579349    13
CTC1_L_00425016-01
1 10060U 22579MN  26075.70034722  .00000000  00000+0  00000-0 0  9996
2 10060  95.0000 180.0000 0000000   0.0000 180.0000 12.65579349    13
CTC1_L_00425016-02
1 10061U 25017LO  26075.70034722  .00000000  00000+0  00000-0 0  9997
2 10061  95.0000 180.0000 0000000   0.0000 270.0000 12.65579349    14
